STARLINK-30463          
1 57909U 23146U   25302.28889979  .00000021  00000+0  16624-4 0  9993
2 57909  43.0036 307.0427 0001015 270.5027  89.5699 15.02535178116248
STARLINK-30453          
1 57910U 23146V   25302.28223235 -.00001706  00000+0 -11119-3 0  9998
2 57910  43.0046 306.9908 0001838 285.2970  74.7669 15.02545003116247
STARLINK-30478          
1 57911U 23146W   25301.33711852  .00000592  00000+0  58873-4 0  9990
2 57911  43.0055 311.9329 0001367 271.5130  88.5555 15.02535862117165
STARLINK-30477          
1 57912U 23146X   25302.27892200  .00012788  00000+0  96065-3 0  9996
2 57912  43.0084 306.9663 0001046 263.2960  96.7764 15.02510289117301
STARLINK-30450          
1 57913U 23147A   25302.33190448  .00000345  00000+0  40592-4 0  9991
2 57913  43.0046 320.2215 0001290 260.8168  99.2529 15.02536769116820
STARLINK-30483          
1 57914U 23147B   25302.42321560  .00002593  00000+0  10369-3 0  9998
2 57914  43.0034 200.9501 0001941 279.9184  80.1448 15.27595271118238
STARLINK-30454          
1 57915U 23147C   25302.32525395 -.00000289  00000+0 -63185-5 0  9998
2 57915  43.0021 320.1714 0001065 279.0073  81.0649 15.02530423116828
STARLINK-30501          
1 57917U 23147E   25302.32191456 -.00000099  00000+0  77628-5 0  9992
2 57917  43.0053 320.1491 0001239 275.4460  84.6241 15.02538785116859
STARLINK-30499          
1 57918U 23147F   25301.03227871 -.00002643  00000+0 -86583-4 0  9998
2 57918  43.0012 209.3965 0002029 272.9055  87.1564 15.27566859118048
STARLINK-30496          
1 57919U 23147G   25302.31525635  .00000379  00000+0  43144-4 0  9998
2 57919  43.0028 320.0972 0001072 272.0372  88.0347 15.02537977116853
STARLINK-30485          
1 57920U 23147H   25301.38123927  .00000520  00000+0  53568-4 0  9993
2 57920  43.0054 325.1303 0001324 269.4042  90.6649 15.02534018116714
STARLINK-30492          
1 57921U 23147J   25301.37790621  .00000299  00000+0  37214-4 0  9997
2 57921  43.0036 325.0996 0001355 272.8215  87.2472 15.02535448116686
STARLINK-30440          
1 57923U 23147L   25301.37457594  .00001114  00000+0  97550-4 0  9994
2 57923  43.0084 325.0818 0001161 267.6148  92.4561 15.02535367116717
STARLINK-30487          
1 57924U 23147M   25302.48471706  .00000930  00000+0  83897-4 0  9993
2 57924  43.0022 318.7701 0001436 279.7827  80.2853 15.02540249116885
STARLINK-30452          
1 57925U 23147N   25301.50420189  .00001241  00000+0  10695-3 0  9996
2 57925  43.0052 324.3268 0001310 268.0139  92.0553 15.02535992116706
STARLINK-30468          
1 57926U 23147P   25302.36508682  .00000431  00000+0  46983-4 0  9997
2 57926  43.0041 319.6155 0000978 273.2639  86.8092 15.02536560116834
