[{"OBJECT_NAME":"STARLINK-30463","OBJECT_ID":"2023-146U","EPOCH":"2025-10-29T06:56:00.941856","MEAN_MOTION":15.02535178,"ECCENTRICITY":0.0001015,"INCLINATION":43.0036,"RA_OF_ASC_NODE":307.0427,"ARG_OF_PERICENTER":270.5027,"MEAN_ANOMALY":89.5699,"EPHEMERIS_TYPE":0,"CLASSIFICATION_TYPE":"U","NORAD_CAT_ID":57909,"ELEMENT_SET_NO":999,"REV_AT_EPOCH":11624,"BSTAR":1.6624e-5,"MEAN_MOTION_DOT":2.1e-7,"MEAN_MOTION_DDOT":0},{"OBJECT_NAME":"STARLINK-30453","OBJECT_ID":"2023-146V","EPOCH":"2025-10-29T06:46:24.875040","MEAN_MOTION":15.02545003,"ECCENTRICITY":0.0001838,"INCLINATION":43.0046,"RA_OF_ASC_NODE":306.9908,"ARG_OF_PERICENTER":285.297,"MEAN_ANOMALY":74.7669,"EPHEMERIS_TYPE":0,"CLASSIFICATION_TYPE":"U","NORAD_CAT_ID":57910,"ELEMENT_SET_NO":999,"REV_AT_EPOCH":11624,"BSTAR":-0.00011119,"MEAN_MOTION_DOT":-1.706e-5,"MEAN_MOTION_DDOT":0},{"OBJECT_NAME":"STARLINK-30478","OBJECT_ID":"2023-146W","EPOCH":"2025-10-28T08:05:27.040128","MEAN_MOTION":15.02535862,"ECCENTRICITY":0.00013672,"INCLINATION":43.0055,"RA_OF_ASC_NODE":311.9329,"ARG_OF_PERICENTER":271.513,"MEAN_ANOMALY":88.5555,"EPHEMERIS_TYPE":0,"CLASSIFICATION_TYPE":"U","NORAD_CAT_ID":57911,"ELEMENT_SET_NO":999,"REV_AT_EPOCH":11716,"BSTAR":5.8872928e-5,"MEAN_MOTION_DOT":5.92e-6,"MEAN_MOTION_DDOT":0},{"OBJECT_NAME":"STARLINK-30477","OBJECT_ID":"2023-146X","EPOCH":"2025-10-29T06:41:38.860800","MEAN_MOTION":15.02510289,"ECCENTRICITY":0.0001046,"INCLINATION":43.0084,"RA_OF_ASC_NODE":306.9663,"ARG_OF_PERICENTER":263.296,"MEAN_ANOMALY":96.7764,"EPHEMERIS_TYPE":0,"CLASSIFICATION_TYPE":"U","NORAD_CAT_ID":57912,"ELEMENT_SET_NO":999,"REV_AT_EPOCH":11730,"BSTAR":0.00096065,"MEAN_MOTION_DOT":0.00012788,"MEAN_MOTION_DDOT":0},{"OBJECT_NAME":"STARLINK-30450","OBJECT_ID":"2023-147A","EPOCH":"2025-10-29T07:57:56.547072","MEAN_MOTION":15.02536769,"ECCENTRICITY":0.000129,"INCLINATION":43.0046,"RA_OF_ASC_NODE":320.2215,"ARG_OF_PERICENTER":260.8168,"MEAN_ANOMALY":99.2529,"EPHEMERIS_TYPE":0,"CLASSIFICATION_TYPE":"U","NORAD_CAT_ID":57913,"ELEMENT_SET_NO":999,"REV_AT_EPOCH":11682,"BSTAR":4.0592e-5,"MEAN_MOTION_DOT":3.45e-6,"MEAN_MOTION_DDOT":0},{"OBJECT_NAME":"STARLINK-30483","OBJECT_ID":"2023-147B","EPOCH":"2025-10-29T10:09:25.827840","MEAN_MOTION":15.27595271,"ECCENTRICITY":0.0001941,"INCLINATION":43.0034,"RA_OF_ASC_NODE":200.9501,"ARG_OF_PERICENTER":279.9184,"MEAN_ANOMALY":80.1448,"EPHEMERIS_TYPE":0,"CLASSIFICATION_TYPE":"U","NORAD_CAT_ID":57914,"ELEMENT_SET_NO":999,"REV_AT_EPOCH":11823,"BSTAR":0.00010369,"MEAN_MOTION_DOT":2.593e-5,"MEAN_MOTION_DDOT":0},{"OBJECT_NAME":"STARLINK-30454","OBJECT_ID":"2023-147C","EPOCH":"2025-10-29T07:48:21.941280","MEAN_MOTION":15.02530423,"ECCENTRICITY":0.0001065,"INCLINATION":43.0021,"RA_OF_ASC_NODE":320.1714,"ARG_OF_PERICENTER":279.0073,"MEAN_ANOMALY":81.0649,"EPHEMERIS_TYPE":0,"CLASSIFICATION_TYPE":"U","NORAD_CAT_ID":57915,"ELEMENT_SET_NO":999,"REV_AT_EPOCH":11682,"BSTAR":-6.3185e-6,"MEAN_MOTION_DOT":-2.89e-6,"MEAN_MOTION_DDOT":0},{"OBJECT_NAME":"STARLINK-30501","OBJECT_ID":"2023-147E","EPOCH":"2025-10-29T07:43:33.417984","MEAN_MOTION":15.02538785,"ECCENTRICITY":0.0001239,"INCLINATION":43.0053,"RA_OF_ASC_NODE":320.1491,"ARG_OF_PERICENTER":275.446,"MEAN_ANOMALY":84.6241,"EPHEMERIS_TYPE":0,"CLASSIFICATION_TYPE":"U","NORAD_CAT_ID":57917,"ELEMENT_SET_NO":999,"REV_AT_EPOCH":11685,"BSTAR":7.7628e-6,"MEAN_MOTION_DOT":-9.9e-7,"MEAN_MOTION_DDOT":0},{"OBJECT_NAME":"STARLINK-30499","OBJECT_ID":"2023-147F","EPOCH":"2025-10-28T00:46:28.880544","MEAN_MOTION":15.27566859,"ECCENTRICITY":0.00020295,"INCLINATION":43.0012,"RA_OF_ASC_NODE":209.3965,"ARG_OF_PERICENTER":272.9055,"MEAN_ANOMALY":87.1564,"EPHEMERIS_TYPE":0,"CLASSIFICATION_TYPE":"U","NORAD_CAT_ID":57918,"ELEMENT_SET_NO":999,"REV_AT_EPOCH":11804,"BSTAR":-8.6582775e-5,"MEAN_MOTION_DOT":-2.643e-5,"MEAN_MOTION_DDOT":0},{"OBJECT_NAME":"STARLINK-30496","OBJECT_ID":"2023-147G","EPOCH":"2025-10-29T07:33:58.148640","MEAN_MOTION":15.02537977,"ECCENTRICITY":0.0001072,"INCLINATION":43.0028,"RA_OF_ASC_NODE":320.0972,"ARG_OF_PERICENTER":272.0372,"MEAN_ANOMALY":88.0347,"EPHEMERIS_TYPE":0,"CLASSIFICATION_TYPE":"U","NORAD_CAT_ID":57919,"ELEMENT_SET_NO":999,"REV_AT_EPOCH":11685,"BSTAR":4.3144e-5,"MEAN_MOTION_DOT":3.79e-6,"MEAN_MOTION_DDOT":0},{"OBJECT_NAME":"STARLINK-30485","OBJECT_ID":"2023-147H","EPOCH":"2025-10-28T09:08:59.072928","MEAN_MOTION":15.02534018,"ECCENTRICITY":0.00013246,"INCLINATION":43.0054,"RA_OF_ASC_NODE":325.1303,"ARG_OF_PERICENTER":269.4042,"MEAN_ANOMALY":90.6649,"EPHEMERIS_TYPE":0,"CLASSIFICATION_TYPE":"U","NORAD_CAT_ID":57920,"ELEMENT_SET_NO":999,"REV_AT_EPOCH":11671,"BSTAR":5.3568218e-5,"MEAN_MOTION_DOT":5.2e-6,"MEAN_MOTION_DDOT":0},{"OBJECT_NAME":"STARLINK-30492","OBJECT_ID":"2023-147J","EPOCH":"2025-10-28T09:04:11.096544","MEAN_MOTION":15.02535448,"ECCENTRICITY":0.0001355,"INCLINATION":43.0036,"RA_OF_ASC_NODE":325.0996,"ARG_OF_PERICENTER":272.8215,"MEAN_ANOMALY":87.2472,"EPHEMERIS_TYPE":0,"CLASSIFICATION_TYPE":"U","NORAD_CAT_ID":57921,"ELEMENT_SET_NO":999,"REV_AT_EPOCH":11668,"BSTAR":3.7213971e-5,"MEAN_MOTION_DOT":2.99e-6,"MEAN_MOTION_DDOT":0},{"OBJECT_NAME":"STARLINK-30440","OBJECT_ID":"2023-147L","EPOCH":"2025-10-28T08:59:23.361216","MEAN_MOTION":15.02535367,"ECCENTRICITY":0.00011615,"INCLINATION":43.0084,"RA_OF_ASC_NODE":325.0818,"ARG_OF_PERICENTER":267.6148,"MEAN_ANOMALY":92.4561,"EPHEMERIS_TYPE":0,"CLASSIFICATION_TYPE":"U","NORAD_CAT_ID":57923,"ELEMENT_SET_NO":999,"REV_AT_EPOCH":11671,"BSTAR":9.7550309e-5,"MEAN_MOTION_DOT":1.114e-5,"MEAN_MOTION_DDOT":0},{"OBJECT_NAME":"STARLINK-30487","OBJECT_ID":"2023-147M","EPOCH":"2025-10-29T11:37:59.553984","MEAN_MOTION":15.02540249,"ECCENTRICITY":0.0001436,"INCLINATION":43.0022,"RA_OF_ASC_NODE":318.7701,"ARG_OF_PERICENTER":279.7827,"MEAN_ANOMALY":80.2853,"EPHEMERIS_TYPE":0,"CLASSIFICATION_TYPE":"U","NORAD_CAT_ID":57924,"ELEMENT_SET_NO":999,"REV_AT_EPOCH":11688,"BSTAR":8.3897e-5,"MEAN_MOTION_DOT":9.3e-6,"MEAN_MOTION_DDOT":0},{"OBJECT_NAME":"STARLINK-30452","OBJECT_ID":"2023-147N","EPOCH":"2025-10-28T12:06:03.043296","MEAN_MOTION":15.02535992,"ECCENTRICITY":0.00013109,"INCLINATION":43.0052,"RA_OF_ASC_NODE":324.3268,"ARG_OF_PERICENTER":268.0139,"MEAN_ANOMALY":92.0553,"EPHEMERIS_TYPE":0,"CLASSIFICATION_TYPE":"U","NORAD_CAT_ID":57925,"ELEMENT_SET_NO":999,"REV_AT_EPOCH":11670,"BSTAR":0.00010695107,"MEAN_MOTION_DOT":1.241e-5,"MEAN_MOTION_DDOT":0},{"OBJECT_NAME":"STARLINK-30468","OBJECT_ID":"2023-147P","EPOCH":"2025-10-29T08:45:43.501248","MEAN_MOTION":15.0253656,"ECCENTRICITY":9.78e-5,"INCLINATION":43.0041,"RA_OF_ASC_NODE":319.6155,"ARG_OF_PERICENTER":273.2639,"MEAN_ANOMALY":86.8092,"EPHEMERIS_TYPE":0,"CLASSIFICATION_TYPE":"U","NORAD_CAT_ID":57926,"ELEMENT_SET_NO":999,"REV_AT_EPOCH":11683,"BSTAR":4.6983e-5,"MEAN_MOTION_DOT":4.31e-6,"MEAN_MOTION_DDOT":0}]
